ONEWEB-0160             
1 48060U 21025U   23344.90387159  .00000406  00000+0  10768-2 0  9999
2 48060  87.8972 143.1837 0000415  88.9930 271.1247 13.13471699132885
ONEWEB-0163             
1 48061U 21025V   23344.88958306  .00000311  00000+0  81796-3 0  9990
2 48061  87.8981 143.1812 0001781  95.9398 264.1934 13.13471619133004
ONEWEB-0159             
1 48062U 21025W   23344.87849622  .00002059  00000+0  56020-2 0  9992
2 48062  87.9016 143.1744 0001182  79.6705 280.4557 13.13470557132927
ONEWEB-0164             
1 48063U 21025X   23344.86100601 -.00000353  00000+0 -10016-2 0  9991
2 48063  87.8989 143.1830 0001425 102.5345 257.5943 13.13474651132909
ONEWEB-0167             
1 48064U 21025Y   23344.89036708  .00000321  00000+0  84404-3 0  9997
2 48064  87.8983 143.1856 0001688  96.6169 263.5152 13.13473563132898
ONEWEB-0166             
1 48065U 21025Z   23344.91180085  .00000209  00000+0  53623-3 0  9993
2 48065  87.8980 143.1719 0001572  83.5818 276.5490 13.13468062132978
ONEWEB-0151             
1 48066U 21025AA  23344.91337908  .00000177  00000+0  44918-3 0  9993
2 48066  87.8983 143.1797 0001329 102.3296 257.7982 13.13475541132919
ONEWEB-0170             
1 48067U 21025AB  23344.92132230 -.00000033  00000+0 -12523-3 0  9996
2 48067  87.8984 143.1792 0000999 120.6773 239.4454 13.13470293132876
